{
  "type": "FeatureCollection",
  "features": [
    {
      "type": "Feature",
      "properties": {
        "norad_id": 67159,
        "name": "KUIPER-00265",
        "group": "last-30-days",
        "lat": 1.6384167782160812,
        "lon": -124.30340463652014,
        "alt_km": 456.9829596487061,
        "timestamp": "2025-12-26T20:30:44.704114+00:00",
        "meta_object_name": "KUIPER-00265",
        "meta_object_id": "2025-301AC",
        "meta_epoch": "2025-12-26T13:29:51.805824",
        "meta_mean_motion": 15.364286,
        "meta_eccentricity": 0.00018621,
        "meta_inclination": 51.8739,
        "meta_ra_of_asc_node": 58.3957,
        "meta_arg_of_pericenter": 95.873,
        "meta_mean_anomaly": 264.2468,
        "meta_ephemeris_type": 0,
        "meta_classification_type": "U",
        "meta_norad_cat_id": 67159,
        "meta_element_set_no": 999,
        "meta_rev_at_epoch": 252,
        "meta_bstar": 0.00067821901,
        "meta_mean_motion_dot": 0.00024167,
        "meta_mean_motion_ddot": 0,
        "tle_line1": "1 67159U 25301AC  25360.56240516  .00024167  00000+0  67822-3 0  9991",
        "tle_line2": "2 67159  51.8739  58.3957 0001862  95.8730 264.2468 15.36428600  2525"
      },
      "geometry": {
        "type": "Point",
        "coordinates": [
          -124.30340463652014,
          1.6384167782160812
        ]
      }
    },
    {
      "type": "Feature",
      "properties": {
        "norad_id": 67160,
        "name": "GALILEO A",
        "group": "last-30-days",
        "lat": 16.83259175063326,
        "lon": 119.56985681949148,
        "alt_km": 22961.733632597618,
        "timestamp": "2025-12-26T20:30:44.704124+00:00",
        "meta_object_name": "GALILEO A",
        "meta_object_id": "2025-302A",
        "meta_epoch": "2025-12-18T03:30:19.486368",
        "meta_mean_motion": 1.72906186,
        "meta_eccentricity": 0.00084238,
        "meta_inclination": 54.2406,
        "meta_ra_of_asc_node": 107.2544,
        "meta_arg_of_pericenter": 237.6458,
        "meta_mean_anomaly": 122.2317,
        "meta_ephemeris_type": 0,
        "meta_classification_type": "U",
        "meta_norad_cat_id": 67160,
        "meta_element_set_no": 999,
        "meta_rev_at_epoch": 2,
        "meta_bstar": 0,
        "meta_mean_motion_dot": -7e-08,
        "meta_mean_motion_ddot": 0,
        "tle_line1": "1 67160U 25302A   25352.14605887 -.00000007  00000+0  00000+0 0  9994",
        "tle_line2": "2 67160  54.2406 107.2544 0008423 237.6458 122.2317  1.72906186    28"
      },
      "geometry": {
        "type": "Point",
        "coordinates": [
          119.56985681949148,
          16.83259175063326
        ]
      }
    },
    {
      "type": "Feature",
      "properties": {
        "norad_id": 67161,
        "name": "GALILEO B",
        "group": "last-30-days",
        "lat": 18.611458805742583,
        "lon": 120.99795464795166,
        "alt_km": 22942.5541735307,
        "timestamp": "2025-12-26T20:30:44.704135+00:00",
        "meta_object_name": "GALILEO B",
        "meta_object_id": "2025-302B",
        "meta_epoch": "2025-12-19T07:14:53.290752",
        "meta_mean_motion": 1.72972192,
        "meta_eccentricity": 0.00045866,
        "meta_inclination": 54.2272,
        "meta_ra_of_asc_node": 107.1916,
        "meta_arg_of_pericenter": 255.0301,
        "meta_mean_anomaly": 104.8802,
        "meta_ephemeris_type": 0,
        "meta_classification_type": "U",
        "meta_norad_cat_id": 67161,
        "meta_element_set_no": 999,
        "meta_rev_at_epoch": 5,
        "meta_bstar": 0,
        "meta_mean_motion_dot": -5e-08,
        "meta_mean_motion_ddot": 0,
        "tle_line1": "1 67161U 25302B   25353.30200568 -.00000005  00000+0  00000+0 0  9999",
        "tle_line2": "2 67161  54.2272 107.1916 0004586 255.0301 104.8802  1.72972192    57"
      },
      "geometry": {
        "type": "Point",
        "coordinates": [
          120.99795464795166,
          18.611458805742583
        ]
      }
    },
    {
      "type": "Feature",
      "properties": {
        "norad_id": 67162,
        "name": "ARIANE 6 R/B",
        "group": "last-30-days",
        "lat": 22.78120317004508,
        "lon": 124.58498732025129,
        "alt_km": 22916.3788274288,
        "timestamp": "2025-12-26T20:30:44.704145+00:00",
        "meta_object_name": "ARIANE 6 R/B",
        "meta_object_id": "2025-302C",
        "meta_epoch": "2025-12-19T07:12:31.071168",
        "meta_mean_motion": 1.73130298,
        "meta_eccentricity": 2.559e-05,
        "meta_inclination": 54.2437,
        "meta_ra_of_asc_node": 107.222,
        "meta_arg_of_pericenter": 160.7324,
        "meta_mean_anomaly": 199.2296,
        "meta_ephemeris_type": 0,
        "meta_classification_type": "U",
        "meta_norad_cat_id": 67162,
        "meta_element_set_no": 999,
        "meta_rev_at_epoch": 8,
        "meta_bstar": 0,
        "meta_mean_motion_dot": -5e-08,
        "meta_mean_motion_ddot": 0,
        "tle_line1": "1 67162U 25302C   25353.30035962 -.00000005  00000+0  00000+0 0  9994",
        "tle_line2": "2 67162  54.2437 107.2220 0000255 160.7324 199.2296  1.73130298    88"
      },
      "geometry": {
        "type": "Point",
        "coordinates": [
          124.58498732025129,
          22.78120317004508
        ]
      }
    },
    {
      "type": "Feature",
      "properties": {
        "norad_id": 67219,
        "name": "DISKSAT A",
        "group": "last-30-days",
        "lat": -20.117599842332307,
        "lon": 117.37683998036985,
        "alt_km": 551.9529996035553,
        "timestamp": "2025-12-26T20:30:44.704154+00:00",
        "meta_object_name": "DISKSAT A",
        "meta_object_id": "2025-305A",
        "meta_epoch": "2025-12-20T09:08:30.149664",
        "meta_mean_motion": 15.05762698,
        "meta_eccentricity": 0.0003912,
        "meta_inclination": 45.0057,
        "meta_ra_of_asc_node": 310.0654,
        "meta_arg_of_pericenter": 276.1097,
        "meta_mean_anomaly": 83.9332,
        "meta_ephemeris_type": 0,
        "meta_classification_type": "U",
        "meta_norad_cat_id": 67219,
        "meta_element_set_no": 999,
        "meta_rev_at_epoch": 33,
        "meta_bstar": 5.0887e-05,
        "meta_mean_motion_dot": 5.1e-06,
        "meta_mean_motion_ddot": 0,
        "tle_line1": "1 67219U 25305A   25354.38090451  .00000510  00000+0  50887-4 0  9996",
        "tle_line2": "2 67219  45.0057 310.0654 0003912 276.1097  83.9332 15.05762698   337"
      },
      "geometry": {
        "type": "Point",
        "coordinates": [
          117.37683998036985,
          -20.117599842332307
        ]
      }
    },
    {
      "type": "Feature",
      "properties": {
        "norad_id": 67220,
        "name": "DISKSAT B",
        "group": "last-30-days",
        "lat": -18.912541107761857,
        "lon": 115.93150545104157,
        "alt_km": 551.9836133132931,
        "timestamp": "2025-12-26T20:30:44.704168+00:00",
        "meta_object_name": "DISKSAT B",
        "meta_object_id": "2025-305B",
        "meta_epoch": "2025-12-20T05:57:31.803264",
        "meta_mean_motion": 15.05702195,
        "meta_eccentricity": 0.0004681,
        "meta_inclination": 45.0108,
        "meta_ra_of_asc_node": 310.7693,
        "meta_arg_of_pericenter": 270.4757,
        "meta_mean_anomaly": 89.5581,
        "meta_ephemeris_type": 0,
        "meta_classification_type": "U",
        "meta_norad_cat_id": 67220,
        "meta_element_set_no": 999,
        "meta_rev_at_epoch": 31,
        "meta_bstar": 5.1086e-05,
        "meta_mean_motion_dot": 5.11e-06,
        "meta_mean_motion_ddot": 0,
        "tle_line1": "1 67220U 25305B   25354.24828476  .00000511  00000+0  51086-4 0  9992",
        "tle_line2": "2 67220  45.0108 310.7693 0004681 270.4757  89.5581 15.05702195   312"
      },
      "geometry": {
        "type": "Point",
        "coordinates": [
          115.93150545104157,
          -18.912541107761857
        ]
      }
    },
    {
      "type": "Feature",
      "properties": {
        "norad_id": 67221,
        "name": "DISKSAT C",
        "group": "last-30-days",
        "lat": -17.934207036354007,
        "lon": 114.77670261758247,
        "alt_km": 552.6557988280292,
        "timestamp": "2025-12-26T20:30:44.704178+00:00",
        "meta_object_name": "DISKSAT C",
        "meta_object_id": "2025-305C",
        "meta_epoch": "2025-12-20T07:33:11.308608",
        "meta_mean_motion": 15.0565367,
        "meta_eccentricity": 0.00043877,
        "meta_inclination": 45.0067,
        "meta_ra_of_asc_node": 310.4143,
        "meta_arg_of_pericenter": 282.7791,
        "meta_mean_anomaly": 77.2594,
        "meta_ephemeris_type": 0,
        "meta_classification_type": "U",
        "meta_norad_cat_id": 67221,
        "meta_element_set_no": 999,
        "meta_rev_at_epoch": 31,
        "meta_bstar": 0.00010190761,
        "meta_mean_motion_dot": 1.256e-05,
        "meta_mean_motion_ddot": 0,
        "tle_line1": "1 67221U 25305C   25354.31471422  .00001256  00000+0  10191-3 0  9994",
        "tle_line2": "2 67221  45.0067 310.4143 0004387 282.7791  77.2594 15.05653670   312"
      },
      "geometry": {
        "type": "Point",
        "coordinates": [
          114.77670261758247,
          -17.934207036354007
        ]
      }
    }
  ]
}